ONEWEB-0156             
1 48052U 21025L   24291.67813333 -.00000369  00000+0 -10449-2 0  9990
2 48052  87.8873  81.0653 0001589  94.3913 265.7397 13.13471944173824
ONEWEB-0161             
1 48053U 21025M   24291.87969467  .00000312  00000+0  82080-3 0  9990
2 48053  87.8877  81.0359 0001586  86.2453 273.8858 13.13465069173797
ONEWEB-0158             
1 48054U 21025N   24291.84159517 -.00000249  00000+0 -71658-3 0  9995
2 48054  87.8877  81.0313 0001608  99.7954 260.3356 13.13469449173901
ONEWEB-0157             
1 48055U 21025P   24291.86540530  .00000371  00000+0  98061-3 0  9998
2 48055  87.8875  81.0400 0001432  88.8436 271.2857 13.13471858173843
ONEWEB-0162             
1 48056U 21025Q   24291.67652945 -.00000250  00000+0 -71831-3 0  9996
2 48056  87.8872  81.0712 0001558  94.6871 265.4436 13.13466368173796
ONEWEB-0155             
1 48057U 21025R   24291.84953317 -.00000029  00000+0 -11314-3 0  9997
2 48057  87.8874  81.0495 0001732  88.5880 271.5448 13.13472420173958
ONEWEB-0149             
1 48058U 21025S   24291.87014781  .00000376  00000+0  99379-3 0  9994
2 48058  87.8874  81.0410 0001356  97.8906 262.2377 13.13473390173775
ONEWEB-0148             
1 48059U 21025T   24291.83524421 -.00000481  00000+0 -13528-2 0  9998
2 48059  87.8877  81.0625 0000979  89.1518 270.9724 13.13469737173884
ONEWEB-0160             
1 48060U 21025U   24291.85112938  .00000004  00000+0 -22905-4 0  9999
2 48060  87.8877  81.0557 0002217 116.1536 243.9822 13.13468371173835
ONEWEB-0163             
1 48061U 21025V   24291.45595617 -.00000180  00000+0 -52795-3 0  9990
2 48061  87.8877  81.1238 0001529  84.0125 276.1178 13.13469661173908
ONEWEB-0159             
1 48062U 21025W   24291.67336392 -.00000208  00000+0 -60358-3 0  9993
2 48062  87.8871  81.0617 0001410  89.1369 270.9922 13.13471893173851
ONEWEB-0164             
1 48063U 21025X   24291.65591132  .00000184  00000+0  46829-3 0  9995
2 48063  87.8875  81.0762 0001719  94.2781 265.8544 13.13466914173833
ONEWEB-0167             
1 48064U 21025Y   24291.83762607 -.00000506  00000+0 -14199-2 0  9997
2 48064  87.8880  81.0540 0001518  87.9543 272.1760 13.13468820173846
ONEWEB-0166             
1 48065U 21025Z   24291.85905929  .00000257  00000+0  66919-3 0  9995
2 48065  87.8871  81.0279 0001409  94.5605 265.5685 13.13472115173921
ONEWEB-0151             
1 48066U 21025AA  24291.86063133  .00000217  00000+0  55982-3 0  9993
2 48066  87.8874  81.0442 0001776  91.8559 268.2773 13.13471596173865
ONEWEB-0170             
1 48067U 21025AB  24291.86857427  .00000373  00000+0  98561-3 0  9994
2 48067  87.8875  81.0455 0002192  98.8954 261.2423 13.13472850173825
ONEWEB-0168             
1 48068U 21025AC  24291.85427543  .00000007  00000+0 -16597-4 0  9991
2 48068  87.8878  81.0219 0001566  92.0842 268.0467 13.13473434173836
ONEWEB-0173             
1 48069U 21025AD  24291.84636505 -.00000101  00000+0 -31035-3 0  9990
2 48069  87.8879  81.0332 0001787  79.5917 280.5413 13.13469091174073
ONEWEB-0171             
1 48070U 21025AE  24291.65432570  .00000095  00000+0  22431-3 0  9997
2 48070  87.8880  81.1075 0001713  91.3070 268.8255 13.13467048173862
ONEWEB-0172             
1 48071U 21025AF  24291.86223708  .00000442  00000+0  11745-2 0  9993
2 48071  87.8878  81.0324 0001685  88.5516 271.5807 13.13469009174782
ONEWEB-0174             
1 48072U 21025AG  24291.84476678 -.00000147  00000+0 -43819-3 0  9990
2 48072  87.8878  81.0502 0001484  95.3145 264.8153 13.13468182174108
ONEWEB-0175             
1 48073U 21025AH  24291.72097303  .00000362  00000+0  95687-3 0  9999
2 48073  87.8873  81.0559 0001972  92.9221 267.2133 13.13472635173748
ONEWEB-0177             
1 48074U 21025AJ  24291.65749706  .00000097  00000+0  23047-3 0  9999
2 48074  87.8873  81.0782 0001487  80.7942 279.3356 13.13467090173923
ONEWEB-0178             
1 48075U 21025AK  24291.67508301 -.00000242  00000+0 -69864-3 0  9997
2 48075  87.8881  81.1007 0001616  86.5950 273.5364 13.13466533173972
ONEWEB-0108             
1 48076U 21025AL  24291.86382063  .00000287  00000+0  75061-3 0  9997
2 48076  87.8874  81.0341 0001530 101.4943 258.6358 13.13468456173927
ONEWEB-0169             
1 48077U 21025AM  24291.89554929 -.00000082  00000+0 -25879-3 0  9990
2 48077  87.8878  81.0406 0001476 101.4760 258.6535 13.13473230172584
ONEWEB-0176             
1 48210U 21031A   24291.75906143 -.00000487  00000+0 -13475-2 0  9997
2 48210  87.9008  50.4843 0001761  98.8435 261.2894 13.14502587168514
ONEWEB-0184             
1 48211U 21031B   24291.57987023  .00000019  00000+0  17430-4 0  9990
2 48211  87.9006  50.4989 0002609  89.0313 271.1116 13.14500708168467
ONEWEB-0179             
1 48212U 21031C   24291.62586853  .00000293  00000+0  75639-3 0  9991
2 48212  87.9010  50.4977 0001688  96.4632 263.6689 13.14501847168514
ONEWEB-0180             
1 48213U 21031D   24291.58304057 -.00000069  00000+0 -22011-3 0  9990
2 48213  87.9006  50.5004 0001614  93.0620 267.0695 13.14503492168390
ONEWEB-0218             
1 48214U 21031E   24291.75748664 -.00000060  00000+0 -19561-3 0  9993
2 48214  87.9010  50.4679 0002534  81.2512 278.8905 13.14502639168570
ONEWEB-0209             
1 48215U 21031F   24291.59414800 -.00000184  00000+0 -53111-3 0  9994
2 48215  87.9006  50.5365 0001582  92.7088 267.4223 13.14502897168557
ONEWEB-0198             
1 48216U 21031G   24291.57828325  .00000034  00000+0  57448-4 0  9994
2 48216  87.9008  50.5435 0001890  87.6399 272.4947 13.14500252168640
ONEWEB-0189             
1 48217U 21031H   24291.59096662 -.00000147  00000+0 -43111-3 0  9996
2 48217  87.9008  50.5165 0001880  84.8772 275.2572 13.14501103168409
ONEWEB-0196             
1 48218U 21031J   24291.56878219  .00000174  00000+0  43428-3 0  9999
2 48218  87.9011  50.5268 0001780  97.0428 263.0904 13.14501922168392
ONEWEB-0183             
1 48219U 21031K   24291.77174039  .00000115  00000+0  27689-3 0  9998
2 48219  87.9006  50.5020 0001502  97.5875 262.5425 13.14499406168526
ONEWEB-0185             
1 48220U 21031L   24291.56957392  .00000227  00000+0  57887-3 0  9995
2 48220  87.9008  50.5131 0001500  91.4805 268.6496 13.14502419168420
ONEWEB-0187             
1 48221U 21031M   24291.76779123  .00000064  00000+0  13859-3 0  9992
2 48221  87.9008  50.5082 0001590  97.3917 262.7393 13.14501427168467
ONEWEB-0192             
1 48222U 21031N   24291.59573987 -.00000206  00000+0 -59087-3 0  9997
2 48222  87.9008  50.5398 0001808  96.2596 263.8740 13.14502563168360
ONEWEB-0219             
1 48223U 21031P   24291.57511032 -.00000331  00000+0 -92749-3 0  9990
2 48223  87.9013  50.5176 0001629  93.9409 266.1907 13.14501812168568
ONEWEB-0202             
1 48224U 21031Q   24291.78444714  .00000263  00000+0  67489-3 0  9991
2 48224  87.9008  50.4938 0002101  77.4824 282.6540 13.14502500168563
ONEWEB-0204             
1 48225U 21031R   24291.59017226 -.00000544  00000+0 -15029-2 0  9991
2 48225  87.9008  50.5443 0001424 110.4027 249.7255 13.14502225168444
ONEWEB-0205             
1 48226U 21031S   24291.56559316  .00000288  00000+0  74305-3 0  9996
2 48226  87.9009  50.5205 0001577  93.5311 266.5999 13.14506815168450
ONEWEB-0206             
1 48227U 21031T   24291.61474888  .00000074  00000+0  16631-3 0  9994
2 48227  87.9005  50.4974 0001462  93.4636 266.6661 13.14506808168416
ONEWEB-0182             
1 48228U 21031U   24291.60999783 -.00000078  00000+0 -24544-3 0  9998
2 48228  87.9008  50.5306 0001551 104.0392 256.0910 13.14506221168629
ONEWEB-0186             
1 48229U 21031V   24291.77334533  .00000106  00000+0  25113-3 0  9996
2 48229  87.9009  50.4614 0001744  95.7678 264.3651 13.14501006168584
ONEWEB-0181             
1 48230U 21031W   24291.59890491 -.00000199  00000+0 -57055-3 0  9992
2 48230  87.9009  50.5663 0001750  94.1707 265.9623 13.14500763168422
ONEWEB-0188             
1 48231U 21031X   24291.78919682  .00000258  00000+0  66043-3 0  9999
2 48231  87.9008  50.5225 0001583  97.1230 263.0080 13.14506836168348
ONEWEB-0220             
1 48232U 21031Y   24291.60048902 -.00000178  00000+0 -51406-3 0  9999
2 48232  87.9002  50.5177 0001438  91.7759 268.3535 13.14500924168585
ONEWEB-0165             
1 48233U 21031Z   24291.78127454  .00000258  00000+0  66087-3 0  9997
2 48233  87.9008  50.5063 0001658  92.6787 267.4532 13.14501254168563
ONEWEB-0199             
1 48234U 21031AA  24291.76540419  .00000013  00000+0  17864-5 0  9996
2 48234  87.9007  50.4773 0001859 104.9676 255.1659 13.14506466168460
ONEWEB-0203             
1 48235U 21031AB  24291.60364578 -.00005053  00000+0 -13666-1 0  9993
2 48235  87.9006  50.5112 0002607  93.2009 266.9419 13.14523580168459
ONEWEB-0197             
1 48236U 21031AC  24291.57907463 -.00000006  00000+0 -50706-4 0  9998
2 48236  87.9008  50.5253 0001476 107.5761 252.5530 13.14500186168367
ONEWEB-0194             
1 48237U 21031AD  24291.78601748 -.00000175  00000+0 -50638-3 0  9999
2 48237  87.9008  50.4786 0001880 103.3273 256.8066 13.14502963168567
ONEWEB-0193             
1 48238U 21031AE  24291.57352709  .00000051  00000+0  10423-3 0  9996
2 48238  87.9010  50.5287 0001836  96.7082 263.4256 13.14500591168483
ONEWEB-0191             
1 48239U 21031AF  24291.58462587 -.00000534  00000+0 -14762-2 0  9991
2 48239  87.9005  50.5063 0001794  96.9101 263.2233 13.14502611168340
ONEWEB-0195             
1 48240U 21031AG  24291.63776249  .00000242  00000+0  61783-3 0  9992
2 48240  87.9007  50.4947 0001796  86.2967 273.8368 13.14500637168339
ONEWEB-0201             
1 48241U 21031AH  24291.62666197  .00000266  00000+0  68431-3 0  9995
2 48241  87.9009  50.5356 0001624  94.7798 265.3517 13.14502035168564
ONEWEB-0207             
1 48242U 21031AJ  24291.75826780 -.00000012  00000+0 -66055-4 0  9998
2 48242  87.9008  50.4738 0001455 100.9364 259.1930 13.14506388168495
